{
  "norad_id": 43812,
  "name": "GLOBAL-2",
  "history": [
    {
      "epoch": "2026-03-28T16:12:56.175552",
      "apogee_km": 546.9538993748811,
      "perigee_km": 536.5779201558635,
      "latitude_deg": -50.53259437646078,
      "longitude_deg": 66.06241727992892,
      "semi_major_axis_km": 6919.902909765372,
      "eccentricity": 0.00074972,
      "inclination_deg": 97.3655,
      "raan_deg": 127.5266,
      "arg_perigee_deg": 77.0495,
      "mean_anomaly_deg": 283.157,
      "mean_motion_rev_day": 15.08178552
    },
    {
      "epoch": "2026-03-29T01:46:10.502688",
      "apogee_km": 546.915746878859,
      "perigee_km": 536.5968020279943,
      "latitude_deg": -44.46540451995186,
      "longitude_deg": 104.27833631983958,
      "semi_major_axis_km": 6919.893274453427,
      "eccentricity": 0.0007456,
      "inclination_deg": 97.3654,
      "raan_deg": 127.9083,
      "arg_perigee_deg": 75.8397,
      "mean_anomaly_deg": 284.366,
      "mean_motion_rev_day": 15.08181702
    }
  ]
}